CTC2_L_00518063-01
1 10124U 24158KQ  26075.70048611  .00000000  00000+0  00000-0 0  9994
2 10124  97.4000 186.0000 0000000   0.0000  12.0000 15.21936487    15
CTC2_L_00518063-02
1 10125U 26212FV  26075.70048611  .00000000  00000+0  00000-0 0  9998
2 10125  97.4000 186.0000 0000000   0.0000 192.0000 15.21936487    15
CTC2_L_00518064-01
1 10126U 25902XB  26075.70048611  .00000000  00000+0  00000-0 0  9994
2 10126  97.4000 189.0000 0000000   0.0000  18.0000 15.21936487    16
CTC2_L_00518064-02
1 10127U 23479JS  26075.70048611  .00000000  00000+0  00000-0 0  9992
2 10127  97.4000 189.0000 0000000   0.0000 198.0000 15.21936487    16
CTC2_L_00518065-01
1 10128U 23455TR  26075.70048611  .00000000  00000+0  00000-0 0  9997
2 10128  97.4000 192.0000 0000000   0.0000  24.0000 15.21936487    19
CTC2_L_00518065-02
1 10129U 25301H   26075.70048611  .00000000  00000+0  00000-0 0  9990
2 10129  97.4000 192.0000 0000000   0.0000 204.0000 15.21936487    10
CTC2_L_00518066-01
1 10130U 24077YK  26075.70048611  .00000000  00000+0  00000-0 0  9991
2 10130  97.4000 195.0000 0000000   0.0000  30.0000 15.21936487    12
CTC2_L_00518066-02
1 10131U 26408CO  26075.70048611  .00000000  00000+0  00000-0 0  9992
2 10131  97.4000 195.0000 0000000   0.0000 210.0000 15.21936487    13
CTC2_L_00518067-01
1 10132U 26249SS  26075.70048611  .00000000  00000+0  00000-0 0  9996
2 10132  97.4000 198.0000 0000000   0.0000  36.0000 15.21936487    13
CTC2_L_00518067-02
1 10133U 25067WK  26075.70048611  .00000000  00000+0  00000-0 0  9994
2 10133  97.4000 198.0000 0000000   0.0000 216.0000 15.21936487    14
CTC2_L_00518068-01
1 10134U 23347SE  26075.70048611  .00000000  00000+0  00000-0 0  9994
2 10134  97.4000 201.0000 0000000   0.0000  42.0000 15.21936487    17
CTC2_L_00518068-02
1 10135U 25486DL  26075.70048611  .00000000  00000+0  00000-0 0  9991
2 10135  97.4000 201.0000 0000000   0.0000 222.0000 15.21936487    18
CTC2_L_00518069-01
1 10136U 26538TW  26075.70048611  .00000000  00000+0  00000-0 0  9991
2 10136  97.4000 204.0000 0000000   0.0000  48.0000 15.21936487    18
CTC2_L_00518069-02
1 10137U 25752YR  26075.70048611  .00000000  00000+0  00000-0 0  9999
2 10137  97.4000 204.0000 0000000   0.0000 228.0000 15.21936487    19
CTC2_L_00518070-01
1 10138U 24800QU  26075.70048611  .00000000  00000+0  00000-0 0  9993
2 10138  97.4000 207.0000 0000000   0.0000  54.0000 15.21936487    10
CTC2_L_00518070-02
1 10139U 26842EX  26075.70048611  .00000000  00000+0  00000-0 0  9992
2 10139  97.4000 207.0000 0000000   0.0000 234.0000 15.21936487    11
CTC2_L_00518071-01
1 10140U 25278OK  26075.70048611  .00000000  00000+0  00000-0 0  9996
2 10140  97.4000 210.0000 0000000   0.0000  60.0000 15.21936487    14
CTC2_L_00518071-02
1 10141U 26549SN  26075.70048611  .00000000  00000+0  00000-0 0  9999
2 10141  97.4000 210.0000 0000000   0.0000 240.0000 15.21936487    15
CTC2_L_00518072-01
1 10142U 23080MQ  26075.70048611  .00000000  00000+0  00000-0 0  9997
2 10142  97.4000 213.0000 0000000   0.0000  66.0000 15.21936487    15
CTC2_L_00518072-02
1 10143U 22768TI  26075.70048611  .00000000  00000+0  00000-0 0  9990
2 10143  97.4000 213.0000 0000000   0.0000 246.0000 15.21936487    16
CTC2_L_00518073-01
1 10144U 24879L   26075.70048611  .00000000  00000+0  00000-0 0  9996
2 10144  97.4000 216.0000 0000000   0.0000  72.0000 15.21936487    17
CTC2_L_00518073-02
1 10145U 22641HX  26075.70048611  .00000000  00000+0  00000-0 0  9992
2 10145  97.4000 216.0000 0000000   0.0000 252.0000 15.21936487    18
CTC2_L_00518074-01
1 10146U 25190AU  26075.70048611  .00000000  00000+0  00000-0 0  9995
2 10146  97.4000 219.0000 0000000   0.0000  78.0000 15.21936487    18
CTC2_L_00518074-02
1 10147U 23562YC  26075.70048611  .00000000  00000+0  00000-0 0  9997
2 10147  97.4000 219.0000 0000000   0.0000 258.0000 15.21936487    19
CTC2_L_00518075-01
1 10148U 24597FE  26075.70048611  .00000000  00000+0  00000-0 0  9997
2 10148  97.4000 222.0000 0000000   0.0000  84.0000 15.21936487    11
CTC2_L_00518075-02
1 10149U 26696CY  26075.70048611  .00000000  00000+0  00000-0 0  9990
2 10149  97.4000 222.0000 0000000   0.0000 264.0000 15.21936487    12
CTC2_L_00518076-01
1 10150U 25885JI  26075.70048611  .00000000  00000+0  00000-0 0  9991
2 10150  97.4000 225.0000 0000000   0.0000  90.0000 15.21936487    14
CTC2_L_00518076-02
1 10151U 24280LC  26075.70048611  .00000000  00000+0  00000-0 0  9990
2 10151  97.4000 225.0000 0000000   0.0000 270.0000 15.21936487    15
CTC2_L_00518077-01
1 10152U 23007FM  26075.70048611  .00000000  00000+0  00000-0 0  9997
2 10152  97.4000 228.0000 0000000   0.0000  96.0000 15.21936487    15
CTC2_L_00518077-02
1 10153U 26678JK  26075.70048611  .00000000  00000+0  00000-0 0  9995
2 10153  97.4000 228.0000 0000000   0.0000 276.0000 15.21936487    16
CTC2_L_00518078-01
1 10154U 26952SB  26075.70048611  .00000000  00000+0  00000-0 0  9991
2 10154  97.4000 231.0000 0000000   0.0000 102.0000 15.21936487    19
CTC2_L_00518078-02
1 10155U 26792EW  26075.70048611  .00000000  00000+0  00000-0 0  9994
2 10155  97.4000 231.0000 0000000   0.0000 282.0000 15.21936487    19
CTC2_L_00518079-01
1 10156U 24329GP  26075.70048611  .00000000  00000+0  00000-0 0  9999
2 10156  97.4000 234.0000 0000000   0.0000 108.0000 15.21936487    10
CTC2_L_00518079-02
1 10157U 22769JS  26075.70048611  .00000000  00000+0  00000-0 0  9996
2 10157  97.4000 234.0000 0000000   0.0000 288.0000 15.21936487    10
CTC2_L_00518080-01
1 10158U 23201NL  26075.70048611  .00000000  00000+0  00000-0 0  9999
2 10158  97.4000 237.0000 0000000   0.0000 114.0000 15.21936487    12
CTC2_L_00518080-02
1 10159U 26180KE  26075.70048611  .00000000  00000+0  00000-0 0  9999
2 10159  97.4000 237.0000 0000000   0.0000 294.0000 15.21936487    12
CTC2_L_00518081-01
1 10160U 23810QT  26075.70048611  .00000000  00000+0  00000-0 0  9998
2 10160  97.4000 240.0000 0000000   0.0000 120.0000 15.21936487    16
CTC2_L_00518081-02
1 10161U 25385RU  26075.70048611  .00000000  00000+0  00000-0 0  9998
2 10161  97.4000 240.0000 0000000   0.0000 300.0000 15.21936487    17
CTC2_L_00518082-01
1 10162U 24641DS  26075.70048611  .00000000  00000+0  00000-0 0  9993
2 10162  97.4000 243.0000 0000000   0.0000 126.0000 15.21936487    17
CTC2_L_00518082-02
1 10163U 26894SB  26075.70048611  .00000000  00000+0  00000-0 0  9996
2 10163  97.4000 243.0000 0000000   0.0000 306.0000 15.21936487    18
CTC2_L_00518083-01
1 10164U 22467HQ  26075.70048611  .00000000  00000+0  00000-0 0  9999
2 10164  97.4000 246.0000 0000000   0.0000 132.0000 15.21936487    19
CTC2_L_00518083-02
1 10165U 23989TB  26075.70048611  .00000000  00000+0  00000-0 0  9990
2 10165  97.4000 246.0000 0000000   0.0000 312.0000 15.21936487    10
CTC2_L_00518084-01
1 10166U 25856AB  26075.70048611  .00000000  00000+0  00000-0 0  9996
2 10166  97.4000 249.0000 0000000   0.0000 138.0000 15.21936487    10
CTC2_L_00518084-02
1 10167U 23429ZL  26075.70048611  .00000000  00000+0  00000-0 0  9991
2 10167  97.4000 249.0000 0000000   0.0000 318.0000 15.21936487    11
CTC2_L_00518085-01
1 10168U 23482JS  26075.70048611  .00000000  00000+0  00000-0 0  9991
2 10168  97.4000 252.0000 0000000   0.0000 144.0000 15.21936487    13
CTC2_L_00518085-02
1 10169U 25102AV  26075.70048611  .00000000  00000+0  00000-0 0  9993
2 10169  97.4000 252.0000 0000000   0.0000 324.0000 15.21936487    14
CTC2_L_00518086-01
1 10170U 24908EW  26075.70048611  .00000000  00000+0  00000-0 0  9998
2 10170  97.4000 255.0000 0000000   0.0000 150.0000 15.21936487    16
CTC2_L_00518086-02
1 10171U 26075PK  26075.70048611  .00000000  00000+0  00000-0 0  9996
2 10171  97.4000 255.0000 0000000   0.0000 330.0000 15.21936487    17
CTC2_L_00518087-01
1 10172U 22606QB  26075.70048611  .00000000  00000+0  00000-0 0  9993
2 10172  97.4000 258.0000 0000000   0.0000 156.0000 15.21936487    17
CTC2_L_00518087-02
1 10173U 23264UK  26075.70048611  .00000000  00000+0  00000-0 0  9995
2 10173  97.4000 258.0000 0000000   0.0000 336.0000 15.21936487    18
CTC2_L_00518088-01
1 10174U 24526MZ  26075.70048611  .00000000  00000+0  00000-0 0  9998
2 10174  97.4000 261.0000 0000000   0.0000 162.0000 15.21936487    10
CTC2_L_00518088-02
1 10175U 24078RV  26075.70048611  .00000000  00000+0  00000-0 0  9991
2 10175  97.4000 261.0000 0000000   0.0000 342.0000 15.21936487    11
CTC2_L_00518089-01
1 10176U 22668UV  26075.70048611  .00000000  00000+0  00000-0 0  9995
2 10176  97.4000 264.0000 0000000   0.0000 168.0000 15.21936487    11
CTC2_L_00518089-02
1 10177U 26727LO  26075.70048611  .00000000  00000+0  00000-0 0  9996
2 10177  97.4000 264.0000 0000000   0.0000 348.0000 15.21936487    12
CTC2_L_00518090-01
1 10178U 26196FC  26075.70048611  .00000000  00000+0  00000-0 0  9997
2 10178  97.4000 267.0000 0000000   0.0000 174.0000 15.21936487    13
CTC2_L_00518090-02
1 10179U 25562SH  26075.70048611  .00000000  00000+0  00000-0 0  9994
2 10179  97.4000 267.0000 0000000   0.0000 354.0000 15.21936487    14
CTC2_L_00518091-01
1 10180U 23813CV  26075.70048611  .00000000  00000+0  00000-0 0  9993
2 10180  97.4000 270.0000 0000000   0.0000 180.0000 15.21936487    17
CTC2_L_00518091-02
1 10181U 22330KA  26075.70048611  .00000000  00000+0  00000-0 0  9997
2 10181  97.4000 270.0000 0000000   0.0000   0.0000 15.21936487    19
CTC2_L_00518092-01
1 10182U 26893HQ  26075.70048611  .00000000  00000+0  00000-0 0  9996
2 10182  97.4000 273.0000 0000000   0.0000 186.0000 15.21936487    18
CTC2_L_00518092-02
1 10183U 26342BN  26075.70048611  .00000000  00000+0  00000-0 0  9996
2 10183  97.4000 273.0000 0000000   0.0000   6.0000 15.21936487    10
CTC2_L_00518093-01
1 10184U 24670YV  26075.70048611  .00000000  00000+0  00000-0 0  9999
2 10184  97.4000 276.0000 0000000   0.0000 192.0000 15.21936487    10
CTC2_L_00518093-02
1 10185U 24784XL  26075.70048611  .00000000  00000+0  00000-0 0  9996
2 10185  97.4000 276.0000 0000000   0.0000  12.0000 15.21936487    12
